{"type": "FeatureCollection", "features": [{"type": "Feature", "geometry": {"type": "Point", "coordinates": [7.17185, 4.66201]}, "properties": {"id": "cand-2019-000", "year": 2019, "date": "2019-02-15", "area_ha": 50.04, "ndvi_before": 0.571, "ndvi_after": 0.296, "ndvi_drop": -0.277, "creek_bank": false, "landcover": 95, "score": 13.844}}, {"type": "Feature", "geometry": {"type": "Point", "coordinates": [7.14759, 4.70664]}, "properties": {"id": "cand-2019-001", "year": 2019, "date": "2019-02-15", "area_ha": 39.46, "ndvi_before": 0.61, "ndvi_after": 0.322, "ndvi_drop": -0.292, "creek_bank": false, "landcover": 95, "score": 11.514}}, {"type": "Feature", "geometry": {"type": "Point", "coordinates": [7.10434, 4.68191]}, "properties": {"id": "cand-2019-002", "year": 2019, "date": "2019-02-15", "area_ha": 39.74, "ndvi_before": 0.544, "ndvi_after": 0.281, "ndvi_drop": -0.267, "creek_bank": false, "landcover": 95, "score": 10.622}}, {"type": "Feature", "geometry": {"type": "Point", "coordinates": [7.2362, 4.65081]}, "properties": {"id": "cand-2019-003", "year": 2019, "date": "2019-02-15", "area_ha": 32.3, "ndvi_before": 0.585, "ndvi_after": 0.287, "ndvi_drop": -0.302, "creek_bank": false, "landcover": 10, "score": 9.744}}, {"type": "Feature", "geometry": {"type": "Point", "coordinates": [7.14098, 4.68779]}, "properties": {"id": "cand-2019-004", "year": 2019, "date": "2019-02-15", "area_ha": 33.02, "ndvi_before": 0.616, "ndvi_after": 0.327, "ndvi_drop": -0.295, "creek_bank": false, "landcover": 95, "score": 9.739}}, {"type": "Feature", "geometry": {"type": "Point", "coordinates": [7.17328, 4.70762]}, "properties": {"id": "cand-2019-005", "year": 2019, "date": "2019-02-15", "area_ha": 28.72, "ndvi_before": 0.64, "ndvi_after": 0.368, "ndvi_drop": -0.282, "creek_bank": false, "landcover": 10, "score": 8.087}}, {"type": "Feature", "geometry": {"type": "Point", "coordinates": [7.11113, 4.7685]}, "properties": {"id": "cand-2019-006", "year": 2019, "date": "2019-02-15", "area_ha": 26.09, "ndvi_before": 0.688, "ndvi_after": 0.391, "ndvi_drop": -0.303, "creek_bank": false, "landcover": 10, "score": 7.901}}, {"type": "Feature", "geometry": {"type": "Point", "coordinates": [7.21374, 4.7036]}, "properties": {"id": "cand-2019-007", "year": 2019, "date": "2019-02-15", "area_ha": 19.17, "ndvi_before": 0.56, "ndvi_after": 0.283, "ndvi_drop": -0.289, "creek_bank": false, "landcover": 10, "score": 5.544}}, {"type": "Feature", "geometry": {"type": "Point", "coordinates": [7.23707, 4.62207]}, "properties": {"id": "cand-2019-008", "year": 2019, "date": "2019-02-15", "area_ha": 20.17, "ndvi_before": 0.555, "ndvi_after": 0.288, "ndvi_drop": -0.272, "creek_bank": false, "landcover": 10, "score": 5.484}}, {"type": "Feature", "geometry": {"type": "Point", "coordinates": [7.23135, 4.64603]}, "properties": {"id": "cand-2019-009", "year": 2019, "date": "2019-02-15", "area_ha": 19.93, "ndvi_before": 0.589, "ndvi_after": 0.321, "ndvi_drop": -0.273, "creek_bank": false, "landcover": 95, "score": 5.431}}, {"type": "Feature", "geometry": {"type": "Point", "coordinates": [7.24135, 4.67686]}, "properties": {"id": "cand-2019-010", "year": 2019, "date": "2019-02-15", "area_ha": 14.84, "ndvi_before": 0.576, "ndvi_after": 0.249, "ndvi_drop": -0.331, "creek_bank": false, "landcover": 10, "score": 4.917}}, {"type": "Feature", "geometry": {"type": "Point", "coordinates": [7.16332, 4.59267]}, "properties": {"id": "cand-2019-011", "year": 2019, "date": "2019-02-15", "area_ha": 16.63, "ndvi_before": 0.543, "ndvi_after": 0.279, "ndvi_drop": -0.267, "creek_bank": false, "landcover": 95, "score": 4.445}}, {"type": "Feature", "geometry": {"type": "Point", "coordinates": [7.13509, 4.68842]}, "properties": {"id": "cand-2019-012", "year": 2019, "date": "2019-02-15", "area_ha": 15.16, "ndvi_before": 0.581, "ndvi_after": 0.309, "ndvi_drop": -0.276, "creek_bank": false, "landcover": 95, "score": 4.184}}, {"type": "Feature", "geometry": {"type": "Point", "coordinates": [7.16372, 4.59728]}, "properties": {"id": "cand-2019-013", "year": 2019, "date": "2019-02-15", "area_ha": 15.08, "ndvi_before": 0.538, "ndvi_after": 0.274, "ndvi_drop": -0.266, "creek_bank": false, "landcover": 95, "score": 4.017}}, {"type": "Feature", "geometry": {"type": "Point", "coordinates": [7.38449, 4.66222]}, "properties": {"id": "cand-2019-014", "year": 2019, "date": "2019-02-15", "area_ha": 14.12, "ndvi_before": 0.567, "ndvi_after": 0.292, "ndvi_drop": -0.282, "creek_bank": false, "landcover": 30, "score": 3.989}}, {"type": "Feature", "geometry": {"type": "Point", "coordinates": [7.24069, 4.78011]}, "properties": {"id": "cand-2019-015", "year": 2019, "date": "2019-02-15", "area_ha": 10.58, "ndvi_before": 0.582, "ndvi_after": 0.261, "ndvi_drop": -0.327, "creek_bank": false, "landcover": 30, "score": 3.461}}, {"type": "Feature", "geometry": {"type": "Point", "coordinates": [7.15945, 4.6584]}, "properties": {"id": "cand-2019-016", "year": 2019, "date": "2019-02-15", "area_ha": 10.66, "ndvi_before": 0.557, "ndvi_after": 0.238, "ndvi_drop": -0.324, "creek_bank": false, "landcover": 95, "score": 3.454}}, {"type": "Feature", "geometry": {"type": "Point", "coordinates": [7.19691, 4.60547]}, "properties": {"id": "cand-2019-017", "year": 2019, "date": "2019-02-15", "area_ha": 12.93, "ndvi_before": 0.516, "ndvi_after": 0.258, "ndvi_drop": -0.265, "creek_bank": false, "landcover": 95, "score": 3.432}}, {"type": "Feature", "geometry": {"type": "Point", "coordinates": [7.13394, 4.59245]}, "properties": {"id": "cand-2019-018", "year": 2019, "date": "2019-02-15", "area_ha": 12.29, "ndvi_before": 0.553, "ndvi_after": 0.281, "ndvi_drop": -0.276, "creek_bank": false, "landcover": 95, "score": 3.392}}, {"type": "Feature", "geometry": {"type": "Point", "coordinates": [7.12408, 4.70539]}, "properties": {"id": "cand-2019-019", "year": 2019, "date": "2019-02-15", "area_ha": 11.38, "ndvi_before": 0.543, "ndvi_after": 0.272, "ndvi_drop": -0.276, "creek_bank": false, "landcover": 95, "score": 3.145}}, {"type": "Feature", "geometry": {"type": "Point", "coordinates": [7.16517, 4.60171]}, "properties": {"id": "cand-2019-020", "year": 2019, "date": "2019-02-15", "area_ha": 11.7, "ndvi_before": 0.533, "ndvi_after": 0.272, "ndvi_drop": -0.265, "creek_bank": false, "landcover": 95, "score": 3.101}}, {"type": "Feature", "geometry": {"type": "Point", "coordinates": [7.28429, 4.52526]}, "properties": {"id": "cand-2019-021", "year": 2019, "date": "2019-02-15", "area_ha": 11.02, "ndvi_before": 0.545, "ndvi_after": 0.282, "ndvi_drop": -0.266, "creek_bank": false, "landcover": 95, "score": 2.934}}, {"type": "Feature", "geometry": {"type": "Point", "coordinates": [7.36169, 4.66087]}, "properties": {"id": "cand-2019-022", "year": 2019, "date": "2019-02-15", "area_ha": 9.35, "ndvi_before": 0.542, "ndvi_after": 0.248, "ndvi_drop": -0.308, "creek_bank": false, "landcover": 30, "score": 2.879}}, {"type": "Feature", "geometry": {"type": "Point", "coordinates": [7.21843, 4.69004]}, "properties": {"id": "cand-2019-023", "year": 2019, "date": "2019-02-15", "area_ha": 9.86, "ndvi_before": 0.615, "ndvi_after": 0.339, "ndvi_drop": -0.279, "creek_bank": false, "landcover": 10, "score": 2.756}}, {"type": "Feature", "geometry": {"type": "Point", "coordinates": [7.20076, 4.60816]}, "properties": {"id": "cand-2019-024", "year": 2019, "date": "2019-02-15", "area_ha": 9.51, "ndvi_before": 0.528, "ndvi_after": 0.267, "ndvi_drop": -0.266, "creek_bank": false, "landcover": 95, "score": 2.526}}, {"type": "Feature", "geometry": {"type": "Point", "coordinates": [7.27838, 4.57231]}, "properties": {"id": "cand-2019-025", "year": 2019, "date": "2019-02-15", "area_ha": 8.99, "ndvi_before": 0.612, "ndvi_after": 0.341, "ndvi_drop": -0.277, "creek_bank": true, "landcover": 95, "score": 2.491}}, {"type": "Feature", "geometry": {"type": "Point", "coordinates": [7.11079, 4.71535]}, "properties": {"id": "cand-2019-026", "year": 2019, "date": "2019-02-15", "area_ha": 8.71, "ndvi_before": 0.548, "ndvi_after": 0.274, "ndvi_drop": -0.284, "creek_bank": false, "landcover": 95, "score": 2.475}}, {"type": "Feature", "geometry": {"type": "Point", "coordinates": [7.31744, 4.57701]}, "properties": {"id": "cand-2019-027", "year": 2019, "date": "2019-02-15", "area_ha": 8.59, "ndvi_before": 0.663, "ndvi_after": 0.393, "ndvi_drop": -0.273, "creek_bank": false, "landcover": 10, "score": 2.348}}, {"type": "Feature", "geometry": {"type": "Point", "coordinates": [7.2341, 4.63058]}, "properties": {"id": "cand-2019-028", "year": 2019, "date": "2019-02-15", "area_ha": 8.15, "ndvi_before": 0.538, "ndvi_after": 0.262, "ndvi_drop": -0.283, "creek_bank": false, "landcover": 10, "score": 2.309}}, {"type": "Feature", "geometry": {"type": "Point", "coordinates": [7.2854, 4.56637]}, "properties": {"id": "cand-2019-029", "year": 2019, "date": "2019-02-15", "area_ha": 8.35, "ndvi_before": 0.613, "ndvi_after": 0.351, "ndvi_drop": -0.276, "creek_bank": false, "landcover": 95, "score": 2.304}}, {"type": "Feature", "geometry": {"type": "Point", "coordinates": [7.11535, 4.61381]}, "properties": {"id": "cand-2019-030", "year": 2019, "date": "2019-02-15", "area_ha": 5.49, "ndvi_before": 0.518, "ndvi_after": 0.123, "ndvi_drop": -0.409, "creek_bank": false, "landcover": 95, "score": 2.244}}, {"type": "Feature", "geometry": {"type": "Point", "coordinates": [7.10742, 4.56268]}, "properties": {"id": "cand-2019-031", "year": 2019, "date": "2019-02-15", "area_ha": 8.43, "ndvi_before": 0.563, "ndvi_after": 0.302, "ndvi_drop": -0.265, "creek_bank": false, "landcover": 95, "score": 2.236}}, {"type": "Feature", "geometry": {"type": "Point", "coordinates": [7.23111, 4.67332]}, "properties": {"id": "cand-2019-032", "year": 2019, "date": "2019-02-15", "area_ha": 7.04, "ndvi_before": 0.573, "ndvi_after": 0.29, "ndvi_drop": -0.291, "creek_bank": false, "landcover": 95, "score": 2.052}}, {"type": "Feature", "geometry": {"type": "Point", "coordinates": [7.27922, 4.52695]}, "properties": {"id": "cand-2019-033", "year": 2019, "date": "2019-02-15", "area_ha": 7.52, "ndvi_before": 0.537, "ndvi_after": 0.27, "ndvi_drop": -0.271, "creek_bank": false, "landcover": 95, "score": 2.038}}, {"type": "Feature", "geometry": {"type": "Point", "coordinates": [7.28877, 4.52411]}, "properties": {"id": "cand-2019-034", "year": 2019, "date": "2019-02-15", "area_ha": 7.24, "ndvi_before": 0.525, "ndvi_after": 0.25, "ndvi_drop": -0.281, "creek_bank": true, "landcover": 95, "score": 2.037}}, {"type": "Feature", "geometry": {"type": "Point", "coordinates": [7.16249, 4.68101]}, "properties": {"id": "cand-2019-035", "year": 2019, "date": "2019-02-15", "area_ha": 7.2, "ndvi_before": 0.597, "ndvi_after": 0.319, "ndvi_drop": -0.281, "creek_bank": true, "landcover": 95, "score": 2.022}}, {"type": "Feature", "geometry": {"type": "Point", "coordinates": [7.21835, 4.68525]}, "properties": {"id": "cand-2019-036", "year": 2019, "date": "2019-02-15", "area_ha": 7.56, "ndvi_before": 0.638, "ndvi_after": 0.375, "ndvi_drop": -0.266, "creek_bank": false, "landcover": 10, "score": 2.013}}, {"type": "Feature", "geometry": {"type": "Point", "coordinates": [7.29951, 4.68387]}, "properties": {"id": "cand-2019-037", "year": 2019, "date": "2019-02-15", "area_ha": 6.36, "ndvi_before": 0.566, "ndvi_after": 0.271, "ndvi_drop": -0.309, "creek_bank": false, "landcover": 30, "score": 1.965}}, {"type": "Feature", "geometry": {"type": "Point", "coordinates": [7.15171, 4.56232]}, "properties": {"id": "cand-2019-038", "year": 2019, "date": "2019-02-15", "area_ha": 6.84, "ndvi_before": 0.535, "ndvi_after": 0.261, "ndvi_drop": -0.287, "creek_bank": false, "landcover": 95, "score": 1.965}}, {"type": "Feature", "geometry": {"type": "Point", "coordinates": [7.20921, 4.74111]}, "properties": {"id": "cand-2019-039", "year": 2019, "date": "2019-02-15", "area_ha": 6.2, "ndvi_before": 0.637, "ndvi_after": 0.33, "ndvi_drop": -0.312, "creek_bank": false, "landcover": 10, "score": 1.938}}, {"type": "Feature", "geometry": {"type": "Point", "coordinates": [7.27003, 4.6907]}, "properties": {"id": "cand-2020-000", "year": 2020, "date": "2020-02-15", "area_ha": 1.27, "ndvi_before": 0.505, "ndvi_after": 0.193, "ndvi_drop": -0.32, "creek_bank": false, "landcover": 30, "score": 0.407}}, {"type": "Feature", "geometry": {"type": "Point", "coordinates": [7.3002, 4.78045]}, "properties": {"id": "cand-2021-000", "year": 2021, "date": "2021-02-15", "area_ha": 451.77, "ndvi_before": 0.588, "ndvi_after": 0.285, "ndvi_drop": -0.307, "creek_bank": false, "landcover": 10, "score": 138.913}}, {"type": "Feature", "geometry": {"type": "Point", "coordinates": [7.37958, 4.64312]}, "properties": {"id": "cand-2021-001", "year": 2021, "date": "2021-02-15", "area_ha": 372.78, "ndvi_before": 0.628, "ndvi_after": 0.32, "ndvi_drop": -0.314, "creek_bank": false, "landcover": 10, "score": 116.943}}, {"type": "Feature", "geometry": {"type": "Point", "coordinates": [7.32387, 4.62444]}, "properties": {"id": "cand-2021-002", "year": 2021, "date": "2021-02-15", "area_ha": 356.04, "ndvi_before": 0.596, "ndvi_after": 0.309, "ndvi_drop": -0.294, "creek_bank": false, "landcover": 10, "score": 104.504}}, {"type": "Feature", "geometry": {"type": "Point", "coordinates": [7.36592, 4.60674]}, "properties": {"id": "cand-2021-003", "year": 2021, "date": "2021-02-15", "area_ha": 109.48, "ndvi_before": 0.607, "ndvi_after": 0.306, "ndvi_drop": -0.309, "creek_bank": false, "landcover": 10, "score": 33.782}}, {"type": "Feature", "geometry": {"type": "Point", "coordinates": [7.33881, 4.61728]}, "properties": {"id": "cand-2021-004", "year": 2021, "date": "2021-02-15", "area_ha": 111.19, "ndvi_before": 0.588, "ndvi_after": 0.304, "ndvi_drop": -0.289, "creek_bank": false, "landcover": 10, "score": 32.177}}, {"type": "Feature", "geometry": {"type": "Point", "coordinates": [7.25242, 4.77667]}, "properties": {"id": "cand-2021-005", "year": 2021, "date": "2021-02-15", "area_ha": 105.52, "ndvi_before": 0.591, "ndvi_after": 0.312, "ndvi_drop": -0.284, "creek_bank": false, "landcover": 10, "score": 29.922}}, {"type": "Feature", "geometry": {"type": "Point", "coordinates": [7.35648, 4.64327]}, "properties": {"id": "cand-2021-006", "year": 2021, "date": "2021-02-15", "area_ha": 94.24, "ndvi_before": 0.632, "ndvi_after": 0.337, "ndvi_drop": -0.3, "creek_bank": false, "landcover": 10, "score": 28.259}}, {"type": "Feature", "geometry": {"type": "Point", "coordinates": [7.33641, 4.65975]}, "properties": {"id": "cand-2021-007", "year": 2021, "date": "2021-02-15", "area_ha": 90.1, "ndvi_before": 0.604, "ndvi_after": 0.321, "ndvi_drop": -0.289, "creek_bank": false, "landcover": 10, "score": 26.008}}, {"type": "Feature", "geometry": {"type": "Point", "coordinates": [7.31256, 4.62372]}, "properties": {"id": "cand-2021-008", "year": 2021, "date": "2021-02-15", "area_ha": 70.01, "ndvi_before": 0.584, "ndvi_after": 0.292, "ndvi_drop": -0.298, "creek_bank": false, "landcover": 10, "score": 20.873}}, {"type": "Feature", "geometry": {"type": "Point", "coordinates": [7.39246, 4.68014]}, "properties": {"id": "cand-2021-009", "year": 2021, "date": "2021-02-15", "area_ha": 66.55, "ndvi_before": 0.627, "ndvi_after": 0.34, "ndvi_drop": -0.291, "creek_bank": false, "landcover": 10, "score": 19.373}}, {"type": "Feature", "geometry": {"type": "Point", "coordinates": [7.26195, 4.78222]}, "properties": {"id": "cand-2021-010", "year": 2021, "date": "2021-02-15", "area_ha": 61.49, "ndvi_before": 0.588, "ndvi_after": 0.299, "ndvi_drop": -0.293, "creek_bank": false, "landcover": 10, "score": 18.037}}, {"type": "Feature", "geometry": {"type": "Point", "coordinates": [7.34168, 4.5908]}, "properties": {"id": "cand-2021-011", "year": 2021, "date": "2021-02-15", "area_ha": 51.16, "ndvi_before": 0.58, "ndvi_after": 0.277, "ndvi_drop": -0.309, "creek_bank": false, "landcover": 30, "score": 15.787}}, {"type": "Feature", "geometry": {"type": "Point", "coordinates": [7.36812, 4.59551]}, "properties": {"id": "cand-2021-012", "year": 2021, "date": "2021-02-15", "area_ha": 41.93, "ndvi_before": 0.59, "ndvi_after": 0.288, "ndvi_drop": -0.31, "creek_bank": false, "landcover": 10, "score": 13.011}}, {"type": "Feature", "geometry": {"type": "Point", "coordinates": [7.37131, 4.78536]}, "properties": {"id": "cand-2021-013", "year": 2021, "date": "2021-02-15", "area_ha": 42.12, "ndvi_before": 0.577, "ndvi_after": 0.294, "ndvi_drop": -0.292, "creek_bank": false, "landcover": 10, "score": 12.292}}, {"type": "Feature", "geometry": {"type": "Point", "coordinates": [7.36521, 4.76718]}, "properties": {"id": "cand-2021-014", "year": 2021, "date": "2021-02-15", "area_ha": 42.87, "ndvi_before": 0.59, "ndvi_after": 0.314, "ndvi_drop": -0.283, "creek_bank": false, "landcover": 10, "score": 12.146}}, {"type": "Feature", "geometry": {"type": "Point", "coordinates": [7.35734, 4.756]}, "properties": {"id": "cand-2021-015", "year": 2021, "date": "2021-02-15", "area_ha": 43.51, "ndvi_before": 0.604, "ndvi_after": 0.335, "ndvi_drop": -0.278, "creek_bank": false, "landcover": 10, "score": 12.099}}, {"type": "Feature", "geometry": {"type": "Point", "coordinates": [7.39711, 4.61555]}, "properties": {"id": "cand-2021-016", "year": 2021, "date": "2021-02-15", "area_ha": 35.37, "ndvi_before": 0.636, "ndvi_after": 0.35, "ndvi_drop": -0.293, "creek_bank": false, "landcover": 10, "score": 10.354}}, {"type": "Feature", "geometry": {"type": "Point", "coordinates": [7.35822, 4.58193]}, "properties": {"id": "cand-2021-017", "year": 2021, "date": "2021-02-15", "area_ha": 32.46, "ndvi_before": 0.567, "ndvi_after": 0.26, "ndvi_drop": -0.314, "creek_bank": false, "landcover": 95, "score": 10.192}}, {"type": "Feature", "geometry": {"type": "Point", "coordinates": [7.38267, 4.59911]}, "properties": {"id": "cand-2021-018", "year": 2021, "date": "2021-02-15", "area_ha": 34.49, "ndvi_before": 0.613, "ndvi_after": 0.324, "ndvi_drop": -0.295, "creek_bank": false, "landcover": 10, "score": 10.179}}, {"type": "Feature", "geometry": {"type": "Point", "coordinates": [7.34341, 4.79302]}, "properties": {"id": "cand-2021-019", "year": 2021, "date": "2021-02-15", "area_ha": 33.81, "ndvi_before": 0.581, "ndvi_after": 0.301, "ndvi_drop": -0.293, "creek_bank": false, "landcover": 10, "score": 9.896}}, {"type": "Feature", "geometry": {"type": "Point", "coordinates": [7.30172, 4.73995]}, "properties": {"id": "cand-2021-020", "year": 2021, "date": "2021-02-15", "area_ha": 33.05, "ndvi_before": 0.564, "ndvi_after": 0.274, "ndvi_drop": -0.299, "creek_bank": false, "landcover": 10, "score": 9.887}}, {"type": "Feature", "geometry": {"type": "Point", "coordinates": [7.38805, 4.71577]}, "properties": {"id": "cand-2021-021", "year": 2021, "date": "2021-02-15", "area_ha": 36.43, "ndvi_before": 0.625, "ndvi_after": 0.361, "ndvi_drop": -0.269, "creek_bank": false, "landcover": 10, "score": 9.814}}, {"type": "Feature", "geometry": {"type": "Point", "coordinates": [7.32551, 4.79371]}, "properties": {"id": "cand-2021-022", "year": 2021, "date": "2021-02-15", "area_ha": 33.29, "ndvi_before": 0.566, "ndvi_after": 0.28, "ndvi_drop": -0.292, "creek_bank": false, "landcover": 30, "score": 9.723}}, {"type": "Feature", "geometry": {"type": "Point", "coordinates": [7.29757, 4.64212]}, "properties": {"id": "cand-2021-023", "year": 2021, "date": "2021-02-15", "area_ha": 31.23, "ndvi_before": 0.595, "ndvi_after": 0.302, "ndvi_drop": -0.304, "creek_bank": false, "landcover": 10, "score": 9.496}}, {"type": "Feature", "geometry": {"type": "Point", "coordinates": [7.39825, 4.59829]}, "properties": {"id": "cand-2021-024", "year": 2021, "date": "2021-02-15", "area_ha": 31.91, "ndvi_before": 0.621, "ndvi_after": 0.33, "ndvi_drop": -0.296, "creek_bank": false, "landcover": 10, "score": 9.439}}, {"type": "Feature", "geometry": {"type": "Point", "coordinates": [7.39473, 4.7612]}, "properties": {"id": "cand-2021-025", "year": 2021, "date": "2021-02-15", "area_ha": 28.12, "ndvi_before": 0.605, "ndvi_after": 0.326, "ndvi_drop": -0.283, "creek_bank": false, "landcover": 10, "score": 7.955}}, {"type": "Feature", "geometry": {"type": "Point", "coordinates": [7.37006, 4.50549]}, "properties": {"id": "cand-2021-026", "year": 2021, "date": "2021-02-15", "area_ha": 22.72, "ndvi_before": 0.644, "ndvi_after": 0.331, "ndvi_drop": -0.315, "creek_bank": false, "landcover": 95, "score": 7.147}}, {"type": "Feature", "geometry": {"type": "Point", "coordinates": [7.38641, 4.53776]}, "properties": {"id": "cand-2021-027", "year": 2021, "date": "2021-02-15", "area_ha": 22.68, "ndvi_before": 0.559, "ndvi_after": 0.255, "ndvi_drop": -0.307, "creek_bank": false, "landcover": 95, "score": 6.955}}, {"type": "Feature", "geometry": {"type": "Point", "coordinates": [7.30042, 4.62429]}, "properties": {"id": "cand-2021-028", "year": 2021, "date": "2021-02-15", "area_ha": 21.96, "ndvi_before": 0.595, "ndvi_after": 0.295, "ndvi_drop": -0.303, "creek_bank": false, "landcover": 10, "score": 6.656}}, {"type": "Feature", "geometry": {"type": "Point", "coordinates": [7.34301, 4.75443]}, "properties": {"id": "cand-2021-029", "year": 2021, "date": "2021-02-15", "area_ha": 23.23, "ndvi_before": 0.603, "ndvi_after": 0.337, "ndvi_drop": -0.272, "creek_bank": false, "landcover": 10, "score": 6.325}}, {"type": "Feature", "geometry": {"type": "Point", "coordinates": [7.37632, 4.62506]}, "properties": {"id": "cand-2021-030", "year": 2021, "date": "2021-02-15", "area_ha": 21.12, "ndvi_before": 0.618, "ndvi_after": 0.33, "ndvi_drop": -0.295, "creek_bank": false, "landcover": 10, "score": 6.227}}, {"type": "Feature", "geometry": {"type": "Point", "coordinates": [7.33732, 4.59467]}, "properties": {"id": "cand-2021-031", "year": 2021, "date": "2021-02-15", "area_ha": 20.97, "ndvi_before": 0.596, "ndvi_after": 0.314, "ndvi_drop": -0.29, "creek_bank": false, "landcover": 30, "score": 6.07}}, {"type": "Feature", "geometry": {"type": "Point", "coordinates": [7.37151, 4.54803]}, "properties": {"id": "cand-2021-032", "year": 2021, "date": "2021-02-15", "area_ha": 19.38, "ndvi_before": 0.537, "ndvi_after": 0.232, "ndvi_drop": -0.309, "creek_bank": false, "landcover": 95, "score": 5.979}}, {"type": "Feature", "geometry": {"type": "Point", "coordinates": [7.3595, 4.53076]}, "properties": {"id": "cand-2021-033", "year": 2021, "date": "2021-02-15", "area_ha": 18.94, "ndvi_before": 0.533, "ndvi_after": 0.223, "ndvi_drop": -0.313, "creek_bank": false, "landcover": 95, "score": 5.922}}, {"type": "Feature", "geometry": {"type": "Point", "coordinates": [7.34517, 4.7412]}, "properties": {"id": "cand-2021-034", "year": 2021, "date": "2021-02-15", "area_ha": 18.93, "ndvi_before": 0.632, "ndvi_after": 0.353, "ndvi_drop": -0.284, "creek_bank": false, "landcover": 10, "score": 5.384}}, {"type": "Feature", "geometry": {"type": "Point", "coordinates": [7.34902, 4.59144]}, "properties": {"id": "cand-2021-035", "year": 2021, "date": "2021-02-15", "area_ha": 16.67, "ndvi_before": 0.55, "ndvi_after": 0.249, "ndvi_drop": -0.311, "creek_bank": false, "landcover": 95, "score": 5.188}}, {"type": "Feature", "geometry": {"type": "Point", "coordinates": [7.36976, 4.73402]}, "properties": {"id": "cand-2021-036", "year": 2021, "date": "2021-02-15", "area_ha": 17.7, "ndvi_before": 0.609, "ndvi_after": 0.325, "ndvi_drop": -0.289, "creek_bank": false, "landcover": 10, "score": 5.121}}, {"type": "Feature", "geometry": {"type": "Point", "coordinates": [7.37699, 4.7283]}, "properties": {"id": "cand-2021-037", "year": 2021, "date": "2021-02-15", "area_ha": 17.5, "ndvi_before": 0.608, "ndvi_after": 0.333, "ndvi_drop": -0.285, "creek_bank": false, "landcover": 10, "score": 4.982}}, {"type": "Feature", "geometry": {"type": "Point", "coordinates": [7.34755, 4.57866]}, "properties": {"id": "cand-2021-038", "year": 2021, "date": "2021-02-15", "area_ha": 16.83, "ndvi_before": 0.545, "ndvi_after": 0.261, "ndvi_drop": -0.292, "creek_bank": false, "landcover": 95, "score": 4.918}}, {"type": "Feature", "geometry": {"type": "Point", "coordinates": [7.29115, 4.69787]}, "properties": {"id": "cand-2021-039", "year": 2021, "date": "2021-02-15", "area_ha": 16.63, "ndvi_before": 0.601, "ndvi_after": 0.322, "ndvi_drop": -0.285, "creek_bank": false, "landcover": 10, "score": 4.737}}, {"type": "Feature", "geometry": {"type": "Point", "coordinates": [7.31507, 4.71477]}, "properties": {"id": "cand-2023-000", "year": 2023, "date": "2023-02-15", "area_ha": 32.02, "ndvi_before": 0.566, "ndvi_after": 0.27, "ndvi_drop": -0.304, "creek_bank": false, "landcover": 30, "score": 9.74}}, {"type": "Feature", "geometry": {"type": "Point", "coordinates": [7.35561, 4.73077]}, "properties": {"id": "cand-2023-001", "year": 2023, "date": "2023-02-15", "area_ha": 12.89, "ndvi_before": 0.548, "ndvi_after": 0.242, "ndvi_drop": -0.323, "creek_bank": false, "landcover": 10, "score": 4.161}}, {"type": "Feature", "geometry": {"type": "Point", "coordinates": [7.3132, 4.69151]}, "properties": {"id": "cand-2023-002", "year": 2023, "date": "2023-02-15", "area_ha": 7.08, "ndvi_before": 0.591, "ndvi_after": 0.297, "ndvi_drop": -0.346, "creek_bank": false, "landcover": 30, "score": 2.451}}, {"type": "Feature", "geometry": {"type": "Point", "coordinates": [7.35962, 4.73019]}, "properties": {"id": "cand-2023-003", "year": 2023, "date": "2023-02-15", "area_ha": 6.96, "ndvi_before": 0.591, "ndvi_after": 0.277, "ndvi_drop": -0.335, "creek_bank": false, "landcover": 10, "score": 2.334}}, {"type": "Feature", "geometry": {"type": "Point", "coordinates": [7.26873, 4.6905]}, "properties": {"id": "cand-2023-004", "year": 2023, "date": "2023-02-15", "area_ha": 4.97, "ndvi_before": 0.541, "ndvi_after": 0.237, "ndvi_drop": -0.321, "creek_bank": false, "landcover": 30, "score": 1.596}}, {"type": "Feature", "geometry": {"type": "Point", "coordinates": [7.37342, 4.73482]}, "properties": {"id": "cand-2023-005", "year": 2023, "date": "2023-02-15", "area_ha": 4.14, "ndvi_before": 0.618, "ndvi_after": 0.321, "ndvi_drop": -0.313, "creek_bank": false, "landcover": 30, "score": 1.294}}, {"type": "Feature", "geometry": {"type": "Point", "coordinates": [7.36817, 4.78172]}, "properties": {"id": "cand-2023-006", "year": 2023, "date": "2023-02-15", "area_ha": 4.02, "ndvi_before": 0.591, "ndvi_after": 0.316, "ndvi_drop": -0.31, "creek_bank": false, "landcover": 30, "score": 1.246}}, {"type": "Feature", "geometry": {"type": "Point", "coordinates": [7.30913, 4.68341]}, "properties": {"id": "cand-2023-007", "year": 2023, "date": "2023-02-15", "area_ha": 3.38, "ndvi_before": 0.592, "ndvi_after": 0.314, "ndvi_drop": -0.315, "creek_bank": false, "landcover": 10, "score": 1.065}}, {"type": "Feature", "geometry": {"type": "Point", "coordinates": [7.30836, 4.68732]}, "properties": {"id": "cand-2023-008", "year": 2023, "date": "2023-02-15", "area_ha": 3.26, "ndvi_before": 0.614, "ndvi_after": 0.331, "ndvi_drop": -0.325, "creek_bank": false, "landcover": 10, "score": 1.061}}, {"type": "Feature", "geometry": {"type": "Point", "coordinates": [7.33146, 4.79591]}, "properties": {"id": "cand-2023-009", "year": 2023, "date": "2023-02-15", "area_ha": 3.38, "ndvi_before": 0.552, "ndvi_after": 0.283, "ndvi_drop": -0.298, "creek_bank": false, "landcover": 30, "score": 1.008}}, {"type": "Feature", "geometry": {"type": "Point", "coordinates": [7.29457, 4.73713]}, "properties": {"id": "cand-2023-010", "year": 2023, "date": "2023-02-15", "area_ha": 3.02, "ndvi_before": 0.557, "ndvi_after": 0.259, "ndvi_drop": -0.318, "creek_bank": false, "landcover": 30, "score": 0.961}}, {"type": "Feature", "geometry": {"type": "Point", "coordinates": [7.31759, 4.77818]}, "properties": {"id": "cand-2023-011", "year": 2023, "date": "2023-02-15", "area_ha": 2.98, "ndvi_before": 0.601, "ndvi_after": 0.316, "ndvi_drop": -0.31, "creek_bank": false, "landcover": 30, "score": 0.924}}, {"type": "Feature", "geometry": {"type": "Point", "coordinates": [7.30219, 4.68695]}, "properties": {"id": "cand-2023-012", "year": 2023, "date": "2023-02-15", "area_ha": 2.86, "ndvi_before": 0.591, "ndvi_after": 0.289, "ndvi_drop": -0.321, "creek_bank": false, "landcover": 10, "score": 0.921}}, {"type": "Feature", "geometry": {"type": "Point", "coordinates": [7.27417, 4.7073]}, "properties": {"id": "cand-2023-013", "year": 2023, "date": "2023-02-15", "area_ha": 2.55, "ndvi_before": 0.575, "ndvi_after": 0.262, "ndvi_drop": -0.353, "creek_bank": false, "landcover": 30, "score": 0.898}}, {"type": "Feature", "geometry": {"type": "Point", "coordinates": [7.37436, 4.77535]}, "properties": {"id": "cand-2023-014", "year": 2023, "date": "2023-02-15", "area_ha": 2.9, "ndvi_before": 0.563, "ndvi_after": 0.275, "ndvi_drop": -0.308, "creek_bank": false, "landcover": 30, "score": 0.893}}, {"type": "Feature", "geometry": {"type": "Point", "coordinates": [7.30119, 4.75047]}, "properties": {"id": "cand-2023-015", "year": 2023, "date": "2023-02-15", "area_ha": 2.82, "ndvi_before": 0.523, "ndvi_after": 0.26, "ndvi_drop": -0.293, "creek_bank": false, "landcover": 30, "score": 0.828}}, {"type": "Feature", "geometry": {"type": "Point", "coordinates": [7.29984, 4.69531]}, "properties": {"id": "cand-2023-016", "year": 2023, "date": "2023-02-15", "area_ha": 2.55, "ndvi_before": 0.556, "ndvi_after": 0.255, "ndvi_drop": -0.323, "creek_bank": false, "landcover": 30, "score": 0.821}}, {"type": "Feature", "geometry": {"type": "Point", "coordinates": [7.31267, 4.68187]}, "properties": {"id": "cand-2023-017", "year": 2023, "date": "2023-02-15", "area_ha": 2.55, "ndvi_before": 0.602, "ndvi_after": 0.344, "ndvi_drop": -0.308, "creek_bank": false, "landcover": 10, "score": 0.783}}, {"type": "Feature", "geometry": {"type": "Point", "coordinates": [7.26436, 4.7851]}, "properties": {"id": "cand-2023-018", "year": 2023, "date": "2023-02-15", "area_ha": 2.74, "ndvi_before": 0.556, "ndvi_after": 0.29, "ndvi_drop": -0.284, "creek_bank": false, "landcover": 30, "score": 0.781}}, {"type": "Feature", "geometry": {"type": "Point", "coordinates": [7.29724, 4.6912]}, "properties": {"id": "cand-2023-019", "year": 2023, "date": "2023-02-15", "area_ha": 2.19, "ndvi_before": 0.599, "ndvi_after": 0.305, "ndvi_drop": -0.318, "creek_bank": false, "landcover": 30, "score": 0.696}}, {"type": "Feature", "geometry": {"type": "Point", "coordinates": [7.30628, 4.68692]}, "properties": {"id": "cand-2023-020", "year": 2023, "date": "2023-02-15", "area_ha": 2.27, "ndvi_before": 0.605, "ndvi_after": 0.336, "ndvi_drop": -0.303, "creek_bank": false, "landcover": 10, "score": 0.687}}, {"type": "Feature", "geometry": {"type": "Point", "coordinates": [7.30902, 4.69576]}, "properties": {"id": "cand-2023-021", "year": 2023, "date": "2023-02-15", "area_ha": 2.27, "ndvi_before": 0.614, "ndvi_after": 0.35, "ndvi_drop": -0.299, "creek_bank": false, "landcover": 30, "score": 0.678}}, {"type": "Feature", "geometry": {"type": "Point", "coordinates": [7.36734, 4.79274]}, "properties": {"id": "cand-2023-022", "year": 2023, "date": "2023-02-15", "area_ha": 2.27, "ndvi_before": 0.566, "ndvi_after": 0.29, "ndvi_drop": -0.287, "creek_bank": false, "landcover": 30, "score": 0.651}}, {"type": "Feature", "geometry": {"type": "Point", "coordinates": [7.2677, 4.72361]}, "properties": {"id": "cand-2023-023", "year": 2023, "date": "2023-02-15", "area_ha": 2.07, "ndvi_before": 0.55, "ndvi_after": 0.256, "ndvi_drop": -0.314, "creek_bank": false, "landcover": 30, "score": 0.649}}, {"type": "Feature", "geometry": {"type": "Point", "coordinates": [7.28793, 4.68446]}, "properties": {"id": "cand-2023-024", "year": 2023, "date": "2023-02-15", "area_ha": 1.99, "ndvi_before": 0.543, "ndvi_after": 0.26, "ndvi_drop": -0.31, "creek_bank": false, "landcover": 30, "score": 0.616}}, {"type": "Feature", "geometry": {"type": "Point", "coordinates": [7.36966, 4.73187]}, "properties": {"id": "cand-2023-025", "year": 2023, "date": "2023-02-15", "area_ha": 1.91, "ndvi_before": 0.581, "ndvi_after": 0.278, "ndvi_drop": -0.319, "creek_bank": false, "landcover": 10, "score": 0.609}}, {"type": "Feature", "geometry": {"type": "Point", "coordinates": [7.37313, 4.76939]}, "properties": {"id": "cand-2023-026", "year": 2023, "date": "2023-02-15", "area_ha": 1.87, "ndvi_before": 0.579, "ndvi_after": 0.29, "ndvi_drop": -0.321, "creek_bank": false, "landcover": 30, "score": 0.6}}, {"type": "Feature", "geometry": {"type": "Point", "coordinates": [7.29926, 4.68349]}, "properties": {"id": "cand-2023-027", "year": 2023, "date": "2023-02-15", "area_ha": 1.83, "ndvi_before": 0.571, "ndvi_after": 0.275, "ndvi_drop": -0.322, "creek_bank": false, "landcover": 30, "score": 0.588}}, {"type": "Feature", "geometry": {"type": "Point", "coordinates": [7.31744, 4.74483]}, "properties": {"id": "cand-2023-028", "year": 2023, "date": "2023-02-15", "area_ha": 1.87, "ndvi_before": 0.569, "ndvi_after": 0.293, "ndvi_drop": -0.308, "creek_bank": false, "landcover": 30, "score": 0.575}}, {"type": "Feature", "geometry": {"type": "Point", "coordinates": [7.27296, 4.71732]}, "properties": {"id": "cand-2023-029", "year": 2023, "date": "2023-02-15", "area_ha": 1.87, "ndvi_before": 0.554, "ndvi_after": 0.283, "ndvi_drop": -0.304, "creek_bank": false, "landcover": 30, "score": 0.568}}, {"type": "Feature", "geometry": {"type": "Point", "coordinates": [7.3199, 4.77739]}, "properties": {"id": "cand-2023-030", "year": 2023, "date": "2023-02-15", "area_ha": 1.87, "ndvi_before": 0.6, "ndvi_after": 0.328, "ndvi_drop": -0.302, "creek_bank": false, "landcover": 30, "score": 0.564}}, {"type": "Feature", "geometry": {"type": "Point", "coordinates": [7.37065, 4.78031]}, "properties": {"id": "cand-2023-031", "year": 2023, "date": "2023-02-15", "area_ha": 1.75, "ndvi_before": 0.546, "ndvi_after": 0.293, "ndvi_drop": -0.306, "creek_bank": false, "landcover": 10, "score": 0.536}}, {"type": "Feature", "geometry": {"type": "Point", "coordinates": [7.3581, 4.78367]}, "properties": {"id": "cand-2023-032", "year": 2023, "date": "2023-02-15", "area_ha": 1.63, "ndvi_before": 0.585, "ndvi_after": 0.289, "ndvi_drop": -0.325, "creek_bank": false, "landcover": 30, "score": 0.53}}, {"type": "Feature", "geometry": {"type": "Point", "coordinates": [7.31733, 4.6885]}, "properties": {"id": "cand-2023-033", "year": 2023, "date": "2023-02-15", "area_ha": 1.63, "ndvi_before": 0.595, "ndvi_after": 0.306, "ndvi_drop": -0.317, "creek_bank": false, "landcover": 30, "score": 0.517}}, {"type": "Feature", "geometry": {"type": "Point", "coordinates": [7.31284, 4.73758]}, "properties": {"id": "cand-2023-034", "year": 2023, "date": "2023-02-15", "area_ha": 1.67, "ndvi_before": 0.581, "ndvi_after": 0.29, "ndvi_drop": -0.308, "creek_bank": false, "landcover": 30, "score": 0.515}}, {"type": "Feature", "geometry": {"type": "Point", "coordinates": [7.30231, 4.70003]}, "properties": {"id": "cand-2023-035", "year": 2023, "date": "2023-02-15", "area_ha": 1.63, "ndvi_before": 0.603, "ndvi_after": 0.302, "ndvi_drop": -0.314, "creek_bank": false, "landcover": 30, "score": 0.512}}, {"type": "Feature", "geometry": {"type": "Point", "coordinates": [7.3177, 4.75776]}, "properties": {"id": "cand-2023-036", "year": 2023, "date": "2023-02-15", "area_ha": 1.67, "ndvi_before": 0.574, "ndvi_after": 0.308, "ndvi_drop": -0.304, "creek_bank": false, "landcover": 30, "score": 0.508}}, {"type": "Feature", "geometry": {"type": "Point", "coordinates": [7.28885, 4.6967]}, "properties": {"id": "cand-2023-037", "year": 2023, "date": "2023-02-15", "area_ha": 1.63, "ndvi_before": 0.596, "ndvi_after": 0.308, "ndvi_drop": -0.304, "creek_bank": false, "landcover": 30, "score": 0.496}}, {"type": "Feature", "geometry": {"type": "Point", "coordinates": [7.21234, 4.70548]}, "properties": {"id": "cand-2023-038", "year": 2023, "date": "2023-02-15", "area_ha": 1.67, "ndvi_before": 0.544, "ndvi_after": 0.309, "ndvi_drop": -0.292, "creek_bank": false, "landcover": 10, "score": 0.488}}, {"type": "Feature", "geometry": {"type": "Point", "coordinates": [7.36905, 4.79245]}, "properties": {"id": "cand-2023-039", "year": 2023, "date": "2023-02-15", "area_ha": 1.55, "ndvi_before": 0.611, "ndvi_after": 0.312, "ndvi_drop": -0.314, "creek_bank": false, "landcover": 30, "score": 0.487}}, {"type": "Feature", "geometry": {"type": "Point", "coordinates": [7.34968, 4.64086]}, "properties": {"id": "cand-2024-000", "year": 2024, "date": "2024-02-15", "area_ha": 16.43, "ndvi_before": 0.568, "ndvi_after": 0.276, "ndvi_drop": -0.307, "creek_bank": false, "landcover": 30, "score": 5.036}}, {"type": "Feature", "geometry": {"type": "Point", "coordinates": [7.18428, 4.69614]}, "properties": {"id": "cand-2024-001", "year": 2024, "date": "2024-02-15", "area_ha": 4.61, "ndvi_before": 0.521, "ndvi_after": 0.061, "ndvi_drop": -0.468, "creek_bank": false, "landcover": 95, "score": 2.158}}, {"type": "Feature", "geometry": {"type": "Point", "coordinates": [7.32044, 4.62914]}, "properties": {"id": "cand-2024-002", "year": 2024, "date": "2024-02-15", "area_ha": 7.0, "ndvi_before": 0.645, "ndvi_after": 0.36, "ndvi_drop": -0.305, "creek_bank": false, "landcover": 10, "score": 2.133}}, {"type": "Feature", "geometry": {"type": "Point", "coordinates": [7.37138, 4.65631]}, "properties": {"id": "cand-2024-003", "year": 2024, "date": "2024-02-15", "area_ha": 4.3, "ndvi_before": 0.559, "ndvi_after": 0.285, "ndvi_drop": -0.291, "creek_bank": false, "landcover": 30, "score": 1.25}}, {"type": "Feature", "geometry": {"type": "Point", "coordinates": [7.39728, 4.67255]}, "properties": {"id": "cand-2024-004", "year": 2024, "date": "2024-02-15", "area_ha": 2.11, "ndvi_before": 0.536, "ndvi_after": 0.155, "ndvi_drop": -0.407, "creek_bank": false, "landcover": 30, "score": 0.857}}, {"type": "Feature", "geometry": {"type": "Point", "coordinates": [7.32356, 4.75039]}, "properties": {"id": "cand-2024-005", "year": 2024, "date": "2024-02-15", "area_ha": 2.55, "ndvi_before": 0.564, "ndvi_after": 0.258, "ndvi_drop": -0.323, "creek_bank": false, "landcover": 10, "score": 0.823}}, {"type": "Feature", "geometry": {"type": "Point", "coordinates": [7.1895, 4.74021]}, "properties": {"id": "cand-2024-006", "year": 2024, "date": "2024-02-15", "area_ha": 2.39, "ndvi_before": 0.527, "ndvi_after": 0.242, "ndvi_drop": -0.322, "creek_bank": false, "landcover": 10, "score": 0.768}}, {"type": "Feature", "geometry": {"type": "Point", "coordinates": [7.14774, 4.71352]}, "properties": {"id": "cand-2024-007", "year": 2024, "date": "2024-02-15", "area_ha": 1.75, "ndvi_before": 0.533, "ndvi_after": 0.12, "ndvi_drop": -0.432, "creek_bank": false, "landcover": 30, "score": 0.757}}, {"type": "Feature", "geometry": {"type": "Point", "coordinates": [7.39127, 4.58836]}, "properties": {"id": "cand-2024-008", "year": 2024, "date": "2024-02-15", "area_ha": 2.47, "ndvi_before": 0.632, "ndvi_after": 0.336, "ndvi_drop": -0.305, "creek_bank": false, "landcover": 95, "score": 0.753}}, {"type": "Feature", "geometry": {"type": "Point", "coordinates": [7.36573, 4.65778]}, "properties": {"id": "cand-2024-009", "year": 2024, "date": "2024-02-15", "area_ha": 2.67, "ndvi_before": 0.566, "ndvi_after": 0.295, "ndvi_drop": -0.282, "creek_bank": false, "landcover": 30, "score": 0.752}}, {"type": "Feature", "geometry": {"type": "Point", "coordinates": [7.30605, 4.62373]}, "properties": {"id": "cand-2024-010", "year": 2024, "date": "2024-02-15", "area_ha": 2.35, "ndvi_before": 0.624, "ndvi_after": 0.326, "ndvi_drop": -0.313, "creek_bank": false, "landcover": 10, "score": 0.734}}, {"type": "Feature", "geometry": {"type": "Point", "coordinates": [7.33108, 4.74589]}, "properties": {"id": "cand-2024-011", "year": 2024, "date": "2024-02-15", "area_ha": 2.39, "ndvi_before": 0.539, "ndvi_after": 0.255, "ndvi_drop": -0.299, "creek_bank": false, "landcover": 30, "score": 0.713}}, {"type": "Feature", "geometry": {"type": "Point", "coordinates": [7.39153, 4.69868]}, "properties": {"id": "cand-2024-012", "year": 2024, "date": "2024-02-15", "area_ha": 2.15, "ndvi_before": 0.654, "ndvi_after": 0.391, "ndvi_drop": -0.279, "creek_bank": false, "landcover": 10, "score": 0.6}}, {"type": "Feature", "geometry": {"type": "Point", "coordinates": [7.3938, 4.69881]}, "properties": {"id": "cand-2024-013", "year": 2024, "date": "2024-02-15", "area_ha": 2.11, "ndvi_before": 0.634, "ndvi_after": 0.375, "ndvi_drop": -0.271, "creek_bank": false, "landcover": 10, "score": 0.571}}, {"type": "Feature", "geometry": {"type": "Point", "coordinates": [7.34845, 4.6445]}, "properties": {"id": "cand-2024-014", "year": 2024, "date": "2024-02-15", "area_ha": 1.67, "ndvi_before": 0.577, "ndvi_after": 0.263, "ndvi_drop": -0.327, "creek_bank": false, "landcover": 10, "score": 0.546}}, {"type": "Feature", "geometry": {"type": "Point", "coordinates": [7.39907, 4.73444]}, "properties": {"id": "cand-2024-015", "year": 2024, "date": "2024-02-15", "area_ha": 1.79, "ndvi_before": 0.599, "ndvi_after": 0.322, "ndvi_drop": -0.304, "creek_bank": false, "landcover": 10, "score": 0.544}}, {"type": "Feature", "geometry": {"type": "Point", "coordinates": [7.35063, 4.63397]}, "properties": {"id": "cand-2024-016", "year": 2024, "date": "2024-02-15", "area_ha": 1.83, "ndvi_before": 0.568, "ndvi_after": 0.289, "ndvi_drop": -0.297, "creek_bank": false, "landcover": 30, "score": 0.544}}, {"type": "Feature", "geometry": {"type": "Point", "coordinates": [7.11058, 4.78681]}, "properties": {"id": "cand-2024-017", "year": 2024, "date": "2024-02-15", "area_ha": 1.75, "ndvi_before": 0.618, "ndvi_after": 0.325, "ndvi_drop": -0.304, "creek_bank": false, "landcover": 10, "score": 0.532}}, {"type": "Feature", "geometry": {"type": "Point", "coordinates": [7.3942, 4.65836]}, "properties": {"id": "cand-2024-018", "year": 2024, "date": "2024-02-15", "area_ha": 1.75, "ndvi_before": 0.634, "ndvi_after": 0.36, "ndvi_drop": -0.298, "creek_bank": false, "landcover": 30, "score": 0.521}}, {"type": "Feature", "geometry": {"type": "Point", "coordinates": [7.39821, 4.67502]}, "properties": {"id": "cand-2024-019", "year": 2024, "date": "2024-02-15", "area_ha": 1.19, "ndvi_before": 0.522, "ndvi_after": 0.115, "ndvi_drop": -0.418, "creek_bank": false, "landcover": 30, "score": 0.499}}, {"type": "Feature", "geometry": {"type": "Point", "coordinates": [7.39803, 4.69397]}, "properties": {"id": "cand-2024-020", "year": 2024, "date": "2024-02-15", "area_ha": 1.63, "ndvi_before": 0.664, "ndvi_after": 0.378, "ndvi_drop": -0.3, "creek_bank": false, "landcover": 10, "score": 0.489}}, {"type": "Feature", "geometry": {"type": "Point", "coordinates": [7.31022, 4.68453]}, "properties": {"id": "cand-2024-021", "year": 2024, "date": "2024-02-15", "area_ha": 1.51, "ndvi_before": 0.558, "ndvi_after": 0.288, "ndvi_drop": -0.317, "creek_bank": false, "landcover": 10, "score": 0.48}}, {"type": "Feature", "geometry": {"type": "Point", "coordinates": [7.31357, 4.63174]}, "properties": {"id": "cand-2024-022", "year": 2024, "date": "2024-02-15", "area_ha": 1.67, "ndvi_before": 0.605, "ndvi_after": 0.34, "ndvi_drop": -0.28, "creek_bank": false, "landcover": 10, "score": 0.467}}, {"type": "Feature", "geometry": {"type": "Point", "coordinates": [7.39965, 4.67383]}, "properties": {"id": "cand-2024-023", "year": 2024, "date": "2024-02-15", "area_ha": 1.19, "ndvi_before": 0.514, "ndvi_after": 0.146, "ndvi_drop": -0.376, "creek_bank": false, "landcover": 30, "score": 0.449}}, {"type": "Feature", "geometry": {"type": "Point", "coordinates": [7.36144, 4.58862]}, "properties": {"id": "cand-2024-024", "year": 2024, "date": "2024-02-15", "area_ha": 1.47, "ndvi_before": 0.641, "ndvi_after": 0.357, "ndvi_drop": -0.3, "creek_bank": false, "landcover": 30, "score": 0.442}}, {"type": "Feature", "geometry": {"type": "Point", "coordinates": [7.36773, 4.65621]}, "properties": {"id": "cand-2024-025", "year": 2024, "date": "2024-02-15", "area_ha": 1.35, "ndvi_before": 0.544, "ndvi_after": 0.231, "ndvi_drop": -0.325, "creek_bank": false, "landcover": 30, "score": 0.439}}, {"type": "Feature", "geometry": {"type": "Point", "coordinates": [7.38677, 4.70263]}, "properties": {"id": "cand-2024-026", "year": 2024, "date": "2024-02-15", "area_ha": 1.55, "ndvi_before": 0.665, "ndvi_after": 0.4, "ndvi_drop": -0.282, "creek_bank": false, "landcover": 10, "score": 0.438}}, {"type": "Feature", "geometry": {"type": "Point", "coordinates": [7.14846, 4.71209]}, "properties": {"id": "cand-2024-027", "year": 2024, "date": "2024-02-15", "area_ha": 1.11, "ndvi_before": 0.52, "ndvi_after": 0.143, "ndvi_drop": -0.391, "creek_bank": false, "landcover": 10, "score": 0.435}}, {"type": "Feature", "geometry": {"type": "Point", "coordinates": [7.32512, 4.74534]}, "properties": {"id": "cand-2024-028", "year": 2024, "date": "2024-02-15", "area_ha": 1.35, "ndvi_before": 0.553, "ndvi_after": 0.283, "ndvi_drop": -0.321, "creek_bank": false, "landcover": 30, "score": 0.434}}, {"type": "Feature", "geometry": {"type": "Point", "coordinates": [7.31567, 4.63026]}, "properties": {"id": "cand-2024-029", "year": 2024, "date": "2024-02-15", "area_ha": 1.43, "ndvi_before": 0.64, "ndvi_after": 0.368, "ndvi_drop": -0.295, "creek_bank": false, "landcover": 10, "score": 0.422}}, {"type": "Feature", "geometry": {"type": "Point", "coordinates": [7.30733, 4.68698]}, "properties": {"id": "cand-2024-030", "year": 2024, "date": "2024-02-15", "area_ha": 1.15, "ndvi_before": 0.556, "ndvi_after": 0.286, "ndvi_drop": -0.326, "creek_bank": false, "landcover": 10, "score": 0.376}}, {"type": "Feature", "geometry": {"type": "Point", "coordinates": [7.32786, 4.72749]}, "properties": {"id": "cand-2024-031", "year": 2024, "date": "2024-02-15", "area_ha": 1.27, "ndvi_before": 0.571, "ndvi_after": 0.309, "ndvi_drop": -0.293, "creek_bank": false, "landcover": 30, "score": 0.373}}, {"type": "Feature", "geometry": {"type": "Point", "coordinates": [7.3298, 4.74277]}, "properties": {"id": "cand-2024-032", "year": 2024, "date": "2024-02-15", "area_ha": 1.11, "ndvi_before": 0.587, "ndvi_after": 0.298, "ndvi_drop": -0.325, "creek_bank": false, "landcover": 30, "score": 0.362}}, {"type": "Feature", "geometry": {"type": "Point", "coordinates": [7.37248, 4.56576]}, "properties": {"id": "cand-2024-033", "year": 2024, "date": "2024-02-15", "area_ha": 1.07, "ndvi_before": 0.49, "ndvi_after": 0.203, "ndvi_drop": -0.33, "creek_bank": true, "landcover": 95, "score": 0.355}}, {"type": "Feature", "geometry": {"type": "Point", "coordinates": [7.36743, 4.59899]}, "properties": {"id": "cand-2024-034", "year": 2024, "date": "2024-02-15", "area_ha": 1.15, "ndvi_before": 0.664, "ndvi_after": 0.393, "ndvi_drop": -0.307, "creek_bank": false, "landcover": 30, "score": 0.354}}, {"type": "Feature", "geometry": {"type": "Point", "coordinates": [7.32177, 4.6274]}, "properties": {"id": "cand-2024-035", "year": 2024, "date": "2024-02-15", "area_ha": 1.15, "ndvi_before": 0.638, "ndvi_after": 0.363, "ndvi_drop": -0.297, "creek_bank": false, "landcover": 10, "score": 0.343}}, {"type": "Feature", "geometry": {"type": "Point", "coordinates": [7.37945, 4.58982]}, "properties": {"id": "cand-2024-036", "year": 2024, "date": "2024-02-15", "area_ha": 1.15, "ndvi_before": 0.622, "ndvi_after": 0.358, "ndvi_drop": -0.294, "creek_bank": false, "landcover": 30, "score": 0.34}}, {"type": "Feature", "geometry": {"type": "Point", "coordinates": [7.37634, 4.59407]}, "properties": {"id": "cand-2024-037", "year": 2024, "date": "2024-02-15", "area_ha": 1.07, "ndvi_before": 0.652, "ndvi_after": 0.346, "ndvi_drop": -0.316, "creek_bank": false, "landcover": 10, "score": 0.339}}, {"type": "Feature", "geometry": {"type": "Point", "coordinates": [7.21655, 4.75344]}, "properties": {"id": "cand-2024-038", "year": 2024, "date": "2024-02-15", "area_ha": 1.03, "ndvi_before": 0.61, "ndvi_after": 0.318, "ndvi_drop": -0.318, "creek_bank": false, "landcover": 10, "score": 0.329}}, {"type": "Feature", "geometry": {"type": "Point", "coordinates": [7.33665, 4.73645]}, "properties": {"id": "cand-2024-039", "year": 2024, "date": "2024-02-15", "area_ha": 1.15, "ndvi_before": 0.529, "ndvi_after": 0.26, "ndvi_drop": -0.283, "creek_bank": false, "landcover": 30, "score": 0.326}}, {"type": "Feature", "geometry": {"type": "Point", "coordinates": [7.2263, 4.77976]}, "properties": {"id": "cand-2025-000", "year": 2025, "date": "2025-02-15", "area_ha": 33.85, "ndvi_before": 0.576, "ndvi_after": 0.286, "ndvi_drop": -0.309, "creek_bank": false, "landcover": 30, "score": 10.448}}, {"type": "Feature", "geometry": {"type": "Point", "coordinates": [7.22354, 4.79333]}, "properties": {"id": "cand-2025-001", "year": 2025, "date": "2025-02-15", "area_ha": 16.15, "ndvi_before": 0.568, "ndvi_after": 0.27, "ndvi_drop": -0.311, "creek_bank": false, "landcover": 30, "score": 5.023}}, {"type": "Feature", "geometry": {"type": "Point", "coordinates": [7.28801, 4.68447]}, "properties": {"id": "cand-2025-002", "year": 2025, "date": "2025-02-15", "area_ha": 12.25, "ndvi_before": 0.59, "ndvi_after": 0.282, "ndvi_drop": -0.33, "creek_bank": false, "landcover": 30, "score": 4.044}}, {"type": "Feature", "geometry": {"type": "Point", "coordinates": [7.21463, 4.78785]}, "properties": {"id": "cand-2025-003", "year": 2025, "date": "2025-02-15", "area_ha": 10.38, "ndvi_before": 0.611, "ndvi_after": 0.33, "ndvi_drop": -0.301, "creek_bank": false, "landcover": 30, "score": 3.122}}, {"type": "Feature", "geometry": {"type": "Point", "coordinates": [7.34895, 4.72697]}, "properties": {"id": "cand-2025-004", "year": 2025, "date": "2025-02-15", "area_ha": 9.31, "ndvi_before": 0.591, "ndvi_after": 0.314, "ndvi_drop": -0.286, "creek_bank": false, "landcover": 30, "score": 2.664}}, {"type": "Feature", "geometry": {"type": "Point", "coordinates": [7.33482, 4.65049]}, "properties": {"id": "cand-2025-005", "year": 2025, "date": "2025-02-15", "area_ha": 7.76, "ndvi_before": 0.525, "ndvi_after": 0.237, "ndvi_drop": -0.299, "creek_bank": false, "landcover": 10, "score": 2.321}}, {"type": "Feature", "geometry": {"type": "Point", "coordinates": [7.28926, 4.68]}, "properties": {"id": "cand-2025-006", "year": 2025, "date": "2025-02-15", "area_ha": 5.73, "ndvi_before": 0.62, "ndvi_after": 0.294, "ndvi_drop": -0.341, "creek_bank": false, "landcover": 30, "score": 1.954}}, {"type": "Feature", "geometry": {"type": "Point", "coordinates": [7.33217, 4.5889]}, "properties": {"id": "cand-2025-007", "year": 2025, "date": "2025-02-15", "area_ha": 4.1, "ndvi_before": 0.616, "ndvi_after": 0.3, "ndvi_drop": -0.336, "creek_bank": false, "landcover": 10, "score": 1.375}}, {"type": "Feature", "geometry": {"type": "Point", "coordinates": [7.15845, 4.74301]}, "properties": {"id": "cand-2025-008", "year": 2025, "date": "2025-02-15", "area_ha": 3.74, "ndvi_before": 0.548, "ndvi_after": 0.196, "ndvi_drop": -0.364, "creek_bank": false, "landcover": 10, "score": 1.362}}, {"type": "Feature", "geometry": {"type": "Point", "coordinates": [7.28315, 4.62876]}, "properties": {"id": "cand-2025-009", "year": 2025, "date": "2025-02-15", "area_ha": 4.57, "ndvi_before": 0.555, "ndvi_after": 0.27, "ndvi_drop": -0.296, "creek_bank": false, "landcover": 30, "score": 1.355}}, {"type": "Feature", "geometry": {"type": "Point", "coordinates": [7.22299, 4.78752]}, "properties": {"id": "cand-2025-010", "year": 2025, "date": "2025-02-15", "area_ha": 4.34, "ndvi_before": 0.606, "ndvi_after": 0.309, "ndvi_drop": -0.312, "creek_bank": false, "landcover": 30, "score": 1.351}}, {"type": "Feature", "geometry": {"type": "Point", "coordinates": [7.3589, 4.78341]}, "properties": {"id": "cand-2025-011", "year": 2025, "date": "2025-02-15", "area_ha": 4.26, "ndvi_before": 0.581, "ndvi_after": 0.297, "ndvi_drop": -0.315, "creek_bank": false, "landcover": 30, "score": 1.341}}, {"type": "Feature", "geometry": {"type": "Point", "coordinates": [7.35071, 4.73132]}, "properties": {"id": "cand-2025-012", "year": 2025, "date": "2025-02-15", "area_ha": 4.69, "ndvi_before": 0.565, "ndvi_after": 0.302, "ndvi_drop": -0.276, "creek_bank": false, "landcover": 30, "score": 1.295}}, {"type": "Feature", "geometry": {"type": "Point", "coordinates": [7.29933, 4.6838]}, "properties": {"id": "cand-2025-013", "year": 2025, "date": "2025-02-15", "area_ha": 3.7, "ndvi_before": 0.575, "ndvi_after": 0.259, "ndvi_drop": -0.332, "creek_bank": false, "landcover": 30, "score": 1.228}}, {"type": "Feature", "geometry": {"type": "Point", "coordinates": [7.23844, 4.79623]}, "properties": {"id": "cand-2025-014", "year": 2025, "date": "2025-02-15", "area_ha": 3.98, "ndvi_before": 0.523, "ndvi_after": 0.254, "ndvi_drop": -0.282, "creek_bank": false, "landcover": 30, "score": 1.12}}, {"type": "Feature", "geometry": {"type": "Point", "coordinates": [7.33282, 4.64249]}, "properties": {"id": "cand-2025-015", "year": 2025, "date": "2025-02-15", "area_ha": 3.78, "ndvi_before": 0.529, "ndvi_after": 0.254, "ndvi_drop": -0.292, "creek_bank": false, "landcover": 10, "score": 1.102}}, {"type": "Feature", "geometry": {"type": "Point", "coordinates": [7.31536, 4.76606]}, "properties": {"id": "cand-2025-016", "year": 2025, "date": "2025-02-15", "area_ha": 3.1, "ndvi_before": 0.587, "ndvi_after": 0.27, "ndvi_drop": -0.336, "creek_bank": false, "landcover": 30, "score": 1.041}}, {"type": "Feature", "geometry": {"type": "Point", "coordinates": [7.30604, 4.68727]}, "properties": {"id": "cand-2025-017", "year": 2025, "date": "2025-02-15", "area_ha": 3.34, "ndvi_before": 0.571, "ndvi_after": 0.285, "ndvi_drop": -0.309, "creek_bank": false, "landcover": 10, "score": 1.033}}, {"type": "Feature", "geometry": {"type": "Point", "coordinates": [7.23631, 4.79323]}, "properties": {"id": "cand-2025-018", "year": 2025, "date": "2025-02-15", "area_ha": 3.06, "ndvi_before": 0.536, "ndvi_after": 0.244, "ndvi_drop": -0.311, "creek_bank": false, "landcover": 30, "score": 0.953}}, {"type": "Feature", "geometry": {"type": "Point", "coordinates": [7.2827, 4.68998]}, "properties": {"id": "cand-2025-019", "year": 2025, "date": "2025-02-15", "area_ha": 3.14, "ndvi_before": 0.591, "ndvi_after": 0.3, "ndvi_drop": -0.301, "creek_bank": false, "landcover": 30, "score": 0.947}}, {"type": "Feature", "geometry": {"type": "Point", "coordinates": [7.30907, 4.68347]}, "properties": {"id": "cand-2025-020", "year": 2025, "date": "2025-02-15", "area_ha": 2.94, "ndvi_before": 0.575, "ndvi_after": 0.297, "ndvi_drop": -0.315, "creek_bank": false, "landcover": 10, "score": 0.927}}, {"type": "Feature", "geometry": {"type": "Point", "coordinates": [7.31235, 4.70618]}, "properties": {"id": "cand-2025-021", "year": 2025, "date": "2025-02-15", "area_ha": 2.9, "ndvi_before": 0.565, "ndvi_after": 0.274, "ndvi_drop": -0.306, "creek_bank": false, "landcover": 30, "score": 0.887}}, {"type": "Feature", "geometry": {"type": "Point", "coordinates": [7.32068, 4.77293]}, "properties": {"id": "cand-2025-022", "year": 2025, "date": "2025-02-15", "area_ha": 3.02, "ndvi_before": 0.6, "ndvi_after": 0.337, "ndvi_drop": -0.293, "creek_bank": false, "landcover": 30, "score": 0.885}}, {"type": "Feature", "geometry": {"type": "Point", "coordinates": [7.30826, 4.68726]}, "properties": {"id": "cand-2025-023", "year": 2025, "date": "2025-02-15", "area_ha": 2.82, "ndvi_before": 0.563, "ndvi_after": 0.299, "ndvi_drop": -0.294, "creek_bank": false, "landcover": 10, "score": 0.83}}, {"type": "Feature", "geometry": {"type": "Point", "coordinates": [7.14992, 4.74177]}, "properties": {"id": "cand-2025-024", "year": 2025, "date": "2025-02-15", "area_ha": 2.86, "ndvi_before": 0.545, "ndvi_after": 0.284, "ndvi_drop": -0.277, "creek_bank": false, "landcover": 30, "score": 0.792}}, {"type": "Feature", "geometry": {"type": "Point", "coordinates": [7.20982, 4.78742]}, "properties": {"id": "cand-2025-025", "year": 2025, "date": "2025-02-15", "area_ha": 2.51, "ndvi_before": 0.608, "ndvi_after": 0.324, "ndvi_drop": -0.314, "creek_bank": false, "landcover": 30, "score": 0.788}}, {"type": "Feature", "geometry": {"type": "Point", "coordinates": [7.21801, 4.79326]}, "properties": {"id": "cand-2025-026", "year": 2025, "date": "2025-02-15", "area_ha": 2.47, "ndvi_before": 0.576, "ndvi_after": 0.275, "ndvi_drop": -0.313, "creek_bank": false, "landcover": 30, "score": 0.772}}, {"type": "Feature", "geometry": {"type": "Point", "coordinates": [7.31078, 4.79744]}, "properties": {"id": "cand-2025-027", "year": 2025, "date": "2025-02-15", "area_ha": 2.59, "ndvi_before": 0.604, "ndvi_after": 0.329, "ndvi_drop": -0.286, "creek_bank": false, "landcover": 30, "score": 0.739}}, {"type": "Feature", "geometry": {"type": "Point", "coordinates": [7.33237, 4.61264]}, "properties": {"id": "cand-2025-028", "year": 2025, "date": "2025-02-15", "area_ha": 2.59, "ndvi_before": 0.534, "ndvi_after": 0.263, "ndvi_drop": -0.284, "creek_bank": false, "landcover": 30, "score": 0.734}}, {"type": "Feature", "geometry": {"type": "Point", "coordinates": [7.30773, 4.76806]}, "properties": {"id": "cand-2025-029", "year": 2025, "date": "2025-02-15", "area_ha": 2.27, "ndvi_before": 0.634, "ndvi_after": 0.333, "ndvi_drop": -0.317, "creek_bank": false, "landcover": 10, "score": 0.718}}, {"type": "Feature", "geometry": {"type": "Point", "coordinates": [7.28866, 4.77439]}, "properties": {"id": "cand-2025-030", "year": 2025, "date": "2025-02-15", "area_ha": 2.47, "ndvi_before": 0.543, "ndvi_after": 0.271, "ndvi_drop": -0.288, "creek_bank": false, "landcover": 30, "score": 0.709}}, {"type": "Feature", "geometry": {"type": "Point", "coordinates": [7.33167, 4.79567]}, "properties": {"id": "cand-2025-031", "year": 2025, "date": "2025-02-15", "area_ha": 2.51, "ndvi_before": 0.544, "ndvi_after": 0.299, "ndvi_drop": -0.279, "creek_bank": false, "landcover": 30, "score": 0.7}}, {"type": "Feature", "geometry": {"type": "Point", "coordinates": [7.31711, 4.7618]}, "properties": {"id": "cand-2025-032", "year": 2025, "date": "2025-02-15", "area_ha": 2.27, "ndvi_before": 0.568, "ndvi_after": 0.28, "ndvi_drop": -0.307, "creek_bank": false, "landcover": 30, "score": 0.695}}, {"type": "Feature", "geometry": {"type": "Point", "coordinates": [7.21118, 4.78972]}, "properties": {"id": "cand-2025-033", "year": 2025, "date": "2025-02-15", "area_ha": 2.27, "ndvi_before": 0.623, "ndvi_after": 0.328, "ndvi_drop": -0.302, "creek_bank": false, "landcover": 30, "score": 0.686}}, {"type": "Feature", "geometry": {"type": "Point", "coordinates": [7.32783, 4.79146]}, "properties": {"id": "cand-2025-034", "year": 2025, "date": "2025-02-15", "area_ha": 2.35, "ndvi_before": 0.587, "ndvi_after": 0.314, "ndvi_drop": -0.289, "creek_bank": false, "landcover": 30, "score": 0.678}}, {"type": "Feature", "geometry": {"type": "Point", "coordinates": [7.33029, 4.79031]}, "properties": {"id": "cand-2025-035", "year": 2025, "date": "2025-02-15", "area_ha": 2.03, "ndvi_before": 0.611, "ndvi_after": 0.312, "ndvi_drop": -0.32, "creek_bank": false, "landcover": 30, "score": 0.65}}, {"type": "Feature", "geometry": {"type": "Point", "coordinates": [7.19553, 4.78105]}, "properties": {"id": "cand-2025-036", "year": 2025, "date": "2025-02-15", "area_ha": 1.75, "ndvi_before": 0.533, "ndvi_after": 0.183, "ndvi_drop": -0.371, "creek_bank": false, "landcover": 30, "score": 0.65}}, {"type": "Feature", "geometry": {"type": "Point", "coordinates": [7.29565, 4.77653]}, "properties": {"id": "cand-2025-037", "year": 2025, "date": "2025-02-15", "area_ha": 2.03, "ndvi_before": 0.632, "ndvi_after": 0.335, "ndvi_drop": -0.316, "creek_bank": false, "landcover": 10, "score": 0.64}}, {"type": "Feature", "geometry": {"type": "Point", "coordinates": [7.36764, 4.78394]}, "properties": {"id": "cand-2025-038", "year": 2025, "date": "2025-02-15", "area_ha": 2.03, "ndvi_before": 0.609, "ndvi_after": 0.335, "ndvi_drop": -0.307, "creek_bank": false, "landcover": 30, "score": 0.623}}, {"type": "Feature", "geometry": {"type": "Point", "coordinates": [7.39663, 4.74009]}, "properties": {"id": "cand-2025-039", "year": 2025, "date": "2025-02-15", "area_ha": 1.91, "ndvi_before": 0.617, "ndvi_after": 0.314, "ndvi_drop": -0.324, "creek_bank": false, "landcover": 30, "score": 0.619}}]}